[
    {
        "Altitude(m)": 624790.7841674589,
        "Argument of Periapsis(deg)": 0.0,
        "Eccentricity": 0.0,
        "Inclination(deg)": 60.0,
        "Latitude(deg)": -59.14708256238639,
        "Longitude(deg)": 41.03476386033653,
        "Mean Anomaly(deg)": -81.81820000000006,
        "RAAN(deg)": 215.0,
        "Satellite Name": "Test1 963",
        "Satellite Number": 963,
        "Semi-Major Axis(m)": 6980739.136638005,
        "Time(s)": 0
    },
    {
        "Altitude(m)": 624737.4385964093,
        "Argument of Periapsis(deg)": 0.00010418945913296404,
        "Eccentricity": 0.0,
        "Inclination(deg)": 60.0,
        "Latitude(deg)": -58.99453586278979,
        "Longitude(deg)": 42.154263844913565,
        "Mean Anomaly(deg)": -81.1980938545382,
        "RAAN(deg)": 214.99957995086024,
        "Satellite Name": "Test1 963",
        "Satellite Number": 963,
        "Semi-Major Axis(m)": 6980739.136638005,
        "Time(s)": 10
    }
]